*******************************************************************************
Ephemeris / WWW_USER Mon Jul 15 19:29:49 2024 Pasadena, USA      / Horizons    
*******************************************************************************
Target body name: Hale-Bopp (C/1995 O1)           {source: JPL#226}
Center body name: Earth (399)                     {source: DE441}
Center-site name: Gemini South Obs., Cerro Pachon
*******************************************************************************
Start time      : A.D. 2018-Dec-25 23:55:00.0000 UT      
Stop  time      : A.D. 2018-Dec-26 09:31:00.0000 UT      
Step-size       : 1 minutes
*******************************************************************************
Target pole/equ : undefined
Target radii    : 30. km                                                       
Center geodetic : 289.2634, -30.2406227, 2.71233  {E-lon(deg),Lat(deg),Alt(km)}
Center cylindric: 289.2634,5517.21435,-3194.81213 {E-lon(deg),Dxy(km),Dz(km)}
Center pole/equ : ITRF93                          {East-longitude positive}
Center radii    : 6378.137, 6378.137, 6356.752 km {Equator_a, b, pole_c}       
Target primary  : Sun
Vis. interferer : MOON (R_eq= 1737.400) km        {source: DE441}
Rel. light bend : Sun                             {source: DE441}
Rel. lght bnd GM: 1.3271E+11 km^3/s^2                                          
Small-body perts: Yes                             {source: SB441-N16}
Atmos refraction: NO (AIRLESS)
RA format       : HMS
Time format     : CAL 
Calendar mode   : Mixed Julian/Gregorian
RTS-only print  : NO       
EOP file        : eop.240715.p241008                                           
EOP coverage    : DATA-BASED 1962-JAN-20 TO 2024-JUL-15. PREDICTS-> 2024-OCT-07
Units conversion: 1 au= 149597870.700 km, c= 299792.458 km/s, 1 day= 86400.0 s 
Table cut-offs 1: Elevation (-90.0deg=NO ),Airmass (>38.000=NO), Daylight (YES)
Table cut-offs 2: Solar elongation (  0.0,180.0=NO ),Local Hour Angle( 0.0=NO )
Table cut-offs 3: RA/DEC angular rate (     0.0=NO )                           
*******************************************************************************
Initial IAU76/J2000 heliocentric ecliptic osculating elements (au, days, deg.):
  EPOCH=  2459837.5 ! 2022-Sep-15.0000000 (TDB)    RMSW= n.a.                  
   EC= .9949810027633206   QR= .890537663547794    TP= 2450537.1349071441      
   OM= 282.7334213961641   W= 130.4146670659176    IN= 89.28759424740302       
  Equivalent ICRF heliocentric cartesian coordinates (au, au/d):
   X= 3.907631452214869E+00  Y=-1.373895334060347E+00  Z=-4.624358508575312E+01
  VX= 3.778244409519935E-04 VY=-5.803173067116371E-04 VZ=-3.255716412104052E-03
Comet physical (GM= km^3/s^2; RAD= km):                                        
   GM= n.a.                RAD= 30.                                            
   M1=  4.8      M2=  n.a.     k1=  4.     k2= n.a.     PHCOF= n.a.            
*******************************************************************************
 Date__(UT)__HR:MN     R.A._________(ICRF)_________DEC
******************************************************
$$SOE
 2018-Dec-26 04:03  m  22 27 11.450163 -84 54 34.06243
 2018-Dec-26 04:04  m  22 27 11.469602 -84 54 34.00795
 2018-Dec-26 04:05  m  22 27 11.489044 -84 54 33.95348
 2018-Dec-26 04:06  m  22 27 11.508488 -84 54 33.89900
 2018-Dec-26 04:07  m  22 27 11.527935 -84 54 33.84453
 2018-Dec-26 04:08  m  22 27 11.547385 -84 54 33.79006
 2018-Dec-26 04:09  m  22 27 11.566838 -84 54 33.73559
 2018-Dec-26 04:10  m  22 27 11.586293 -84 54 33.68113
 2018-Dec-26 04:11  m  22 27 11.605751 -84 54 33.62666
 2018-Dec-26 04:12  m  22 27 11.625212 -84 54 33.57219
 2018-Dec-26 04:13  m  22 27 11.644676 -84 54 33.51773
 2018-Dec-26 04:14  m  22 27 11.664143 -84 54 33.46327
 2018-Dec-26 04:15  m  22 27 11.683612 -84 54 33.40881
 2018-Dec-26 04:16  m  22 27 11.703084 -84 54 33.35435
 2018-Dec-26 04:17  m  22 27 11.722559 -84 54 33.29989
 2018-Dec-26 04:18  m  22 27 11.742036 -84 54 33.24543
 2018-Dec-26 04:19  m  22 27 11.761516 -84 54 33.19098
 2018-Dec-26 04:20  m  22 27 11.780999 -84 54 33.13653
 2018-Dec-26 04:21  m  22 27 11.800485 -84 54 33.08207
 2018-Dec-26 04:22  m  22 27 11.819973 -84 54 33.02762
 2018-Dec-26 04:23  m  22 27 11.839464 -84 54 32.97318
 2018-Dec-26 04:24  m  22 27 11.858958 -84 54 32.91873
 2018-Dec-26 04:25  m  22 27 11.878455 -84 54 32.86428
 2018-Dec-26 04:26  m  22 27 11.897954 -84 54 32.80984
 2018-Dec-26 04:27  m  22 27 11.917456 -84 54 32.75540
 2018-Dec-26 04:28  m  22 27 11.936960 -84 54 32.70096
 2018-Dec-26 04:29  m  22 27 11.956468 -84 54 32.64652
 2018-Dec-26 04:30  m  22 27 11.975978 -84 54 32.59208
 2018-Dec-26 04:31  m  22 27 11.995490 -84 54 32.53764
 2018-Dec-26 04:32  m  22 27 12.015006 -84 54 32.48321
 2018-Dec-26 04:33  m  22 27 12.034524 -84 54 32.42878
 2018-Dec-26 04:34  m  22 27 12.054044 -84 54 32.37435
 2018-Dec-26 04:35  m  22 27 12.073568 -84 54 32.31992
 2018-Dec-26 04:36  m  22 27 12.093094 -84 54 32.26549
 2018-Dec-26 04:37  m  22 27 12.112622 -84 54 32.21107
 2018-Dec-26 04:38  m  22 27 12.132154 -84 54 32.15664
 2018-Dec-26 04:39  m  22 27 12.151688 -84 54 32.10222
 2018-Dec-26 04:40  m  22 27 12.171224 -84 54 32.04780
 2018-Dec-26 04:41  m  22 27 12.190763 -84 54 31.99338
 2018-Dec-26 04:42  m  22 27 12.210305 -84 54 31.93897
 2018-Dec-26 04:43  m  22 27 12.229850 -84 54 31.88455
 2018-Dec-26 04:44  m  22 27 12.249397 -84 54 31.83014
 2018-Dec-26 04:45  m  22 27 12.268947 -84 54 31.77573
 2018-Dec-26 04:46  m  22 27 12.288499 -84 54 31.72132
 2018-Dec-26 04:47  m  22 27 12.308054 -84 54 31.66691
 2018-Dec-26 04:48  m  22 27 12.327611 -84 54 31.61251
 2018-Dec-26 04:49  m  22 27 12.347171 -84 54 31.55810
 2018-Dec-26 04:50  m  22 27 12.366734 -84 54 31.50370
 2018-Dec-26 04:51  m  22 27 12.386299 -84 54 31.44930
 2018-Dec-26 04:52  m  22 27 12.405867 -84 54 31.39490
 2018-Dec-26 04:53  m  22 27 12.425437 -84 54 31.34051
 2018-Dec-26 04:54  m  22 27 12.445010 -84 54 31.28611
 2018-Dec-26 04:55  m  22 27 12.464586 -84 54 31.23172
 2018-Dec-26 04:56  m  22 27 12.484164 -84 54 31.17733
 2018-Dec-26 04:57  m  22 27 12.503744 -84 54 31.12295
 2018-Dec-26 04:58  m  22 27 12.523328 -84 54 31.06856
 2018-Dec-26 04:59  m  22 27 12.542913 -84 54 31.01418
 2018-Dec-26 05:00  m  22 27 12.562501 -84 54 30.95979
 2018-Dec-26 05:01  m  22 27 12.582092 -84 54 30.90541
 2018-Dec-26 05:02  m  22 27 12.601685 -84 54 30.85104
 2018-Dec-26 05:03  m  22 27 12.621281 -84 54 30.79666
 2018-Dec-26 05:04  m  22 27 12.640879 -84 54 30.74229
 2018-Dec-26 05:05  m  22 27 12.660480 -84 54 30.68792
 2018-Dec-26 05:06  m  22 27 12.680083 -84 54 30.63355
 2018-Dec-26 05:07  m  22 27 12.699689 -84 54 30.57918
 2018-Dec-26 05:08  m  22 27 12.719297 -84 54 30.52482
 2018-Dec-26 05:09  m  22 27 12.738908 -84 54 30.47045
 2018-Dec-26 05:10  m  22 27 12.758521 -84 54 30.41609
 2018-Dec-26 05:11  m  22 27 12.778137 -84 54 30.36174
 2018-Dec-26 05:12  m  22 27 12.797755 -84 54 30.30738
 2018-Dec-26 05:13  m  22 27 12.817375 -84 54 30.25303
 2018-Dec-26 05:14  m  22 27 12.836998 -84 54 30.19867
 2018-Dec-26 05:15  m  22 27 12.856623 -84 54 30.14432
 2018-Dec-26 05:16  m  22 27 12.876251 -84 54 30.08998
 2018-Dec-26 05:17  m  22 27 12.895881 -84 54 30.03563
 2018-Dec-26 05:18  m  22 27 12.915514 -84 54 29.98129
 2018-Dec-26 05:19  m  22 27 12.935149 -84 54 29.92695
 2018-Dec-26 05:20  m  22 27 12.954786 -84 54 29.87261
 2018-Dec-26 05:21  m  22 27 12.974426 -84 54 29.81828
 2018-Dec-26 05:22  m  22 27 12.994068 -84 54 29.76394
 2018-Dec-26 05:23  m  22 27 13.013713 -84 54 29.70961
 2018-Dec-26 05:24  m  22 27 13.033360 -84 54 29.65528
 2018-Dec-26 05:25  m  22 27 13.053009 -84 54 29.60096
 2018-Dec-26 05:26  m  22 27 13.072661 -84 54 29.54663
 2018-Dec-26 05:27  m  22 27 13.092315 -84 54 29.49231
 2018-Dec-26 05:28  m  22 27 13.111971 -84 54 29.43799
 2018-Dec-26 05:29  m  22 27 13.131630 -84 54 29.38367
 2018-Dec-26 05:30  m  22 27 13.151291 -84 54 29.32936
 2018-Dec-26 05:31  m  22 27 13.170954 -84 54 29.27505
 2018-Dec-26 05:32  m  22 27 13.190620 -84 54 29.22074
 2018-Dec-26 05:33  m  22 27 13.210288 -84 54 29.16643
 2018-Dec-26 05:34  m  22 27 13.229958 -84 54 29.11213
 2018-Dec-26 05:35  m  22 27 13.249630 -84 54 29.05782
 2018-Dec-26 05:36  m  22 27 13.269305 -84 54 29.00352
 2018-Dec-26 05:37  m  22 27 13.288982 -84 54 28.94923
 2018-Dec-26 05:38  m  22 27 13.308662 -84 54 28.89493
 2018-Dec-26 05:39  m  22 27 13.328343 -84 54 28.84064
 2018-Dec-26 05:40  m  22 27 13.348027 -84 54 28.78635
 2018-Dec-26 05:41  m  22 27 13.367713 -84 54 28.73206
 2018-Dec-26 05:42  m  22 27 13.387402 -84 54 28.67778
 2018-Dec-26 05:43  m  22 27 13.407092 -84 54 28.62350
 2018-Dec-26 05:44  m  22 27 13.426785 -84 54 28.56922
 2018-Dec-26 05:45  m  22 27 13.446480 -84 54 28.51494
 2018-Dec-26 05:46  m  22 27 13.466177 -84 54 28.46067
 2018-Dec-26 05:47  m  22 27 13.485877 -84 54 28.40640
 2018-Dec-26 05:48  m  22 27 13.505579 -84 54 28.35213
 2018-Dec-26 05:49  m  22 27 13.525282 -84 54 28.29786
 2018-Dec-26 05:50  m  22 27 13.544988 -84 54 28.24360
 2018-Dec-26 05:51  m  22 27 13.564697 -84 54 28.18934
 2018-Dec-26 05:52  m  22 27 13.584407 -84 54 28.13508
 2018-Dec-26 05:53  m  22 27 13.604120 -84 54 28.08082
 2018-Dec-26 05:54  m  22 27 13.623834 -84 54 28.02657
 2018-Dec-26 05:55  m  22 27 13.643551 -84 54 27.97232
 2018-Dec-26 05:56  m  22 27 13.663270 -84 54 27.91807
 2018-Dec-26 05:57  m  22 27 13.682991 -84 54 27.86382
 2018-Dec-26 05:58  m  22 27 13.702714 -84 54 27.80958
 2018-Dec-26 05:59  m  22 27 13.722439 -84 54 27.75534
 2018-Dec-26 06:00  m  22 27 13.742167 -84 54 27.70111
 2018-Dec-26 06:01  m  22 27 13.761896 -84 54 27.64687
 2018-Dec-26 06:02  m  22 27 13.781628 -84 54 27.59264
 2018-Dec-26 06:03  m  22 27 13.801361 -84 54 27.53841
 2018-Dec-26 06:04  m  22 27 13.821097 -84 54 27.48419
 2018-Dec-26 06:05  m  22 27 13.840835 -84 54 27.42996
 2018-Dec-26 06:06  m  22 27 13.860575 -84 54 27.37574
